STARLINK-33843          
1 63507U 25071Q   26169.03810036  .00016733  00000+0  57577-3 0  9994
2 63507  53.1592  33.7830 0000841  94.1866 265.9231 15.30202506 68117
STARLINK-33809          
1 63508U 25071R   26168.89586026  .00020451  00000+0  70141-3 0  9991
2 63508  53.1601  34.3162 0002434  38.1915 321.9258 15.30166680 68054
STARLINK-33678          
1 63509U 25071S   26168.98980369  .00009389  00000+0  31370-3 0  9998
2 63509  53.1588  33.4819 0001407  84.3959 275.7203 15.31724651 67861
STARLINK-33764          
1 63510U 25071T   26169.00655302  .00012714  00000+0  44057-3 0  9992
2 63510  53.1611  34.2939 0001180 116.1235 243.9888 15.30205492 68101
STARLINK-33804          
1 63511U 25071U   26168.89199730  .00020091  00000+0  65703-3 0  9995
2 63511  53.1602  34.2957 0001146  94.9151 265.1981 15.31720681 67746
STARLINK-33751          
1 63512U 25071V   26168.94789559  .00016147  00000+0  53073-3 0  9990
2 63512  53.1604  33.9331 0001074  71.2934 288.8184 15.31713867 68104
STARLINK-33750          
1 63513U 25071W   26169.00381091  .00011858  00000+0  39311-3 0  9991
2 63513  53.1589  33.5691 0001285  89.9006 270.2143 15.31712441 68110
STARLINK-33786          
1 63514U 25071X   26168.99916468  .00011358  00000+0  39490-3 0  9994
2 63514  53.1592  34.2411 0001244  85.8005 274.3138 15.30209863 67747
STARLINK-33796          
1 63515U 25071Y   26168.89058674  .00019157  00000+0  65684-3 0  9999
2 63515  53.1603  34.2790 0001417  72.3683 287.7473 15.30219806 68116
STARLINK-33785          
1 63516U 25071Z   26169.01781161  .00015032  00000+0  49486-3 0  9999
2 63516  53.1599  33.6546 0001020  68.5064 291.6047 15.31720111 68111
STARLINK-33803          
1 63517U 25071AA  26169.02861405  .00024960  00000+0  85332-3 0  9991
2 63517  53.1599  33.7138 0001168 102.4475 257.6656 15.30150810 68139
STARLINK-33807          
1 63518U 25071AB  26169.25002315 -.00013049  00000+0 -37610-3 0  9998
2 63518  53.1598  30.4942 0000665  44.4047 128.2748 15.34371540  5907
STARLINK-33787          
1 63519U 25071AC  26169.05023755  .00014623  00000+0  50472-3 0  9996
2 63519  53.1584  35.9871 0001001  75.0831 285.0281 15.30209426 67732
TJS-17                  
1 63524U 25073A   26168.71553683 -.00000075  00000+0  00000+0 0  9999
2 63524   1.0661  82.6888 0002062 297.6727 307.7357  1.00272176  4299
STARLINK-11669 [DTC]    
1 63548U 25075A   26168.26211845  .00175640  00000+0  13425-2 0  9996
2 63548  43.0005 273.1773 0002413 298.8313  61.2313 15.70857923 68911
STARLINK-11665 [DTC]    
1 63549U 25075B   26169.30600429  .00077785  00000+0  60343-3 0  9996
2 63549  42.9989 267.2605 0001425 264.9998  95.0707 15.70863679 69079
STARLINK-11667 [DTC]    
1 63550U 25075C   26168.50066478  .00200281  00000+0  15225-2 0  9996
2 63550  42.9980 272.4127 0001872 270.7053  89.3600 15.70910935 68943
STARLINK-11695 [DTC]    
1 63551U 25075D   26168.00870515  .00152206  00000+0  11667-2 0  9996
2 63551  42.9979 274.7206 0002534 254.2094 105.8494 15.70865938 68872
STARLINK-11685 [DTC]    
1 63552U 25075E   26169.29007488  .00206802  00000+0  15624-2 0  9999
2 63552  43.0009 267.1329 0002134 258.8359 101.2268 15.71036723 69076
STARLINK-11697 [DTC]    
1 63553U 25075F   26169.29538414  .00129632  00000+0  99681-3 0  9999
2 63553  42.9989 267.1740 0001645 277.1972  82.8709 15.70869821 69076
STARLINK-11680 [DTC]    
1 63554U 25075G   26169.32192979  .00131723  00000+0  10135-2 0  9996
2 63554  42.9963 267.3837 0001689 181.1621 178.9243 15.70847468 69074
STARLINK-11626 [DTC]    
1 63556U 25075J   26168.76560164  .00189118  00000+0  14364-2 0  9999
2 63556  42.9986 270.9637 0001596 325.8119  34.2645 15.70965975 68988
STARLINK-11668 [DTC]    
1 63557U 25075K   26168.25163774  .00176933  00000+0  13522-2 0  9996
2 63557  43.0009 273.9859 0002495 271.7807  88.2775 15.70857438 68907
STARLINK-11657 [DTC]    
1 63558U 25075L   26169.31662147  .00076342  00000+0  59222-3 0  9994
2 63558  42.9989 267.3415 0001001 249.8934 110.1826 15.70871676 69078
STARLINK-11606 [DTC]    
1 63559U 25075M   26169.28476446  .00082991  00000+0  64269-3 0  9990
2 63559  42.9986 267.0854 0001449 289.0560  71.0150 15.70881938 69074
STARLINK-11592 [DTC]    
1 63560U 25075N   26169.30069431  .00129500  00000+0  99315-3 0  9995
2 63560  43.0000 267.2130 0001530 251.6358 108.4343 15.70933957 69073
STARLINK-32953          
1 63561U 25075P   26167.21579778  .00015728  00000+0  57930-3 0  9997
2 63561  43.0040  74.3863 0002421 273.6747  86.3828 15.27610967 66999
STARLINK-32951          
1 63562U 25075Q   26169.10812997 -.00012596  00000+0 -44886-3 0  9999
2 63562  43.0032  63.6236 0001088 281.3462  78.7268 15.27587509 67296
STARLINK-32958          
1 63563U 25075R   26169.09786943  .00014734  00000+0  54328-3 0  9995
2 63563  43.0048  63.5719 0001558 264.1537  95.9138 15.27615101 67289
STARLINK-32928          
1 63564U 25075S   26169.08116486  .00014357  00000+0  53007-3 0  9998
2 63564  43.0055  63.4495 0001963 282.8232  77.2401 15.27588825 67296
