OBJECT_NAME,OBJECT_ID,EPOCH,MEAN_MOTION,ECCENTRICITY,INCLINATION,RA_OF_ASC_NODE,ARG_OF_PERICENTER,MEAN_ANOMALY,EPHEMERIS_TYPE,CLASSIFICATION_TYPE,NORAD_CAT_ID,ELEMENT_SET_NO,REV_AT_EPOCH,BSTAR,MEAN_MOTION_DOT,MEAN_MOTION_DDOT
STARLINK-33843,2025-071Q,2026-06-18T00:54:51.871104,15.30202506,.00008419,53.1592,33.7830,94.1866,265.9231,0,U,63507,999,6811,.57576632E-3,.16733E-3,0
STARLINK-33809,2025-071R,2026-06-17T21:30:02.326464,15.30166680,.00024341,53.1601,34.3162,38.1915,321.9258,0,U,63508,999,6805,.70140796E-3,.20451E-3,0
STARLINK-33678,2025-071S,2026-06-17T23:45:19.038816,15.31724651,.00014075,53.1588,33.4819,84.3959,275.7203,0,U,63509,999,6786,.31369611E-3,.9389E-4,0
STARLINK-33764,2025-071T,2026-06-18T00:09:26.180928,15.30205492,.000118,53.1611,34.2939,116.1235,243.9888,0,U,63510,999,6810,.44057444E-3,.12714E-3,0
STARLINK-33804,2025-071U,2026-06-17T21:24:28.566720,15.31720681,.00011463,53.1602,34.2957,94.9151,265.1981,0,U,63511,999,6774,.65702788E-3,.20091E-3,0
STARLINK-33751,2025-071V,2026-06-17T22:44:58.178976,15.31713867,.00010749,53.1604,33.9331,71.2934,288.8184,0,U,63512,999,6810,.53073084E-3,.16147E-3,0
STARLINK-33750,2025-071W,2026-06-18T00:05:29.262624,15.31712441,.00012853,53.1589,33.5691,89.9006,270.2143,0,U,63513,999,6811,.3931072E-3,.11858E-3,0
STARLINK-33786,2025-071X,2026-06-17T23:58:47.828352,15.30209863,.00012441,53.1592,34.2411,85.8005,274.3138,0,U,63514,999,6774,.39489916E-3,.11358E-3,0
STARLINK-33796,2025-071Y,2026-06-17T21:22:26.694336,15.30219806,.00014176,53.1603,34.2790,72.3683,287.7473,0,U,63515,999,6811,.65683821E-3,.19157E-3,0
STARLINK-33785,2025-071Z,2026-06-18T00:25:38.923104,15.31720111,.00010207,53.1599,33.6546,68.5064,291.6047,0,U,63516,999,6811,.49486298E-3,.15032E-3,0
STARLINK-33803,2025-071AA,2026-06-18T00:41:12.253920,15.30150810,.0001168,53.1599,33.7138,102.4475,257.6656,0,U,63517,999,6813,.85332243E-3,.2496E-3,0
STARLINK-33807,2025-071AB,2026-06-18T06:00:02.000160,15.34371540,.00006655,53.1598,30.4942,44.4047,128.2748,0,U,63518,999,590,-.3761039E-3,-.13049E-3,0
STARLINK-33787,2025-071AC,2026-06-18T01:12:20.524320,15.30209426,.00010019,53.1584,35.9871,75.0831,285.0281,0,U,63519,999,6773,.50472187E-3,.14623E-3,0
TJS-17,2025-073A,2026-06-17T17:10:22.382112,1.00272176,.0002062,1.0661,82.6888,297.6727,307.7357,0,U,63524,999,429,0,-.75E-6,0
STARLINK-11669 [DTC],2025-075A,2026-06-17T06:17:27.034080,15.70857923,.00024136,43.0005,273.1773,298.8313,61.2313,0,U,63548,999,6891,.1342493E-2,.17564E-2,0
STARLINK-11665 [DTC],2025-075B,2026-06-18T07:20:38.770656,15.70863679,.00014254,42.9989,267.2605,264.9998,95.0707,0,U,63549,999,6907,.60343442E-3,.77785E-3,0
STARLINK-11667 [DTC],2025-075C,2026-06-17T12:00:57.436992,15.70910935,.00018729,42.9980,272.4127,270.7053,89.3600,0,U,63550,999,6894,.15224606E-2,.200281E-2,0
STARLINK-11695 [DTC],2025-075D,2026-06-17T00:12:32.124960,15.70865938,.00025346,42.9979,274.7206,254.2094,105.8494,0,U,63551,999,6887,.11667272E-2,.152206E-2,0
STARLINK-11685 [DTC],2025-075E,2026-06-18T06:57:42.469632,15.71036723,.00021349,43.0009,267.1329,258.8359,101.2268,0,U,63552,999,6907,.1562392E-2,.206802E-2,0
STARLINK-11697 [DTC],2025-075F,2026-06-18T07:05:21.189696,15.70869821,.0001645,42.9989,267.1740,277.1972,82.8709,0,U,63553,999,6907,.99680887E-3,.129632E-2,0
STARLINK-11680 [DTC],2025-075G,2026-06-18T07:43:34.733856,15.70847468,.00016897,42.9963,267.3837,181.1621,178.9243,0,U,63554,999,6907,.10135197E-2,.131723E-2,0
STARLINK-11626 [DTC],2025-075J,2026-06-17T18:22:27.981696,15.70965975,.00015968,42.9986,270.9637,325.8119,34.2645,0,U,63556,999,6898,.14364311E-2,.189118E-2,0
STARLINK-11668 [DTC],2025-075K,2026-06-17T06:02:21.500736,15.70857438,.00024952,43.0009,273.9859,271.7807,88.2775,0,U,63557,999,6890,.13521639E-2,.176933E-2,0
STARLINK-11657 [DTC],2025-075L,2026-06-18T07:35:56.095008,15.70871676,.00010015,42.9989,267.3415,249.8934,110.1826,0,U,63558,999,6907,.59221575E-3,.76342E-3,0
STARLINK-11606 [DTC],2025-075M,2026-06-18T06:50:03.649344,15.70881938,.00014493,42.9986,267.0854,289.0560,71.0150,0,U,63559,999,6907,.64269177E-3,.82991E-3,0
STARLINK-11592 [DTC],2025-075N,2026-06-18T07:12:59.988384,15.70933957,.00015308,43.0000,267.2130,251.6358,108.4343,0,U,63560,999,6907,.99314702E-3,.1295E-2,0
STARLINK-32953,2025-075P,2026-06-16T05:10:44.928192,15.27610967,.0002421,43.0040,74.3863,273.6747,86.3828,0,U,63561,999,6699,.5793E-3,.15728E-3,0
STARLINK-32951,2025-075Q,2026-06-18T02:35:42.429408,15.27587509,.00010883,43.0032,63.6236,281.3462,78.7268,0,U,63562,999,6729,-.44886331E-3,-.12596E-3,0
STARLINK-32958,2025-075R,2026-06-18T02:20:55.918752,15.27615101,.00015581,43.0048,63.5719,264.1537,95.9138,0,U,63563,999,6728,.54328331E-3,.14734E-3,0
STARLINK-32928,2025-075S,2026-06-18T01:56:52.643904,15.27588825,.00019632,43.0055,63.4495,282.8232,77.2401,0,U,63564,999,6729,.53006802E-3,.14357E-3,0
